[{"OBJECT_NAME":"STARLINK-35105","OBJECT_ID":"2025-200Z","EPOCH":"2026-03-09T18:14:27.829248","MEAN_MOTION":15.05647467,"ECCENTRICITY":1.624e-5,"INCLINATION":97.6018,"RA_OF_ASC_NODE":139.9027,"ARG_OF_PERICENTER":252.9895,"MEAN_ANOMALY":107.1314,"EPHEMERIS_TYPE":0,"CLASSIFICATION_TYPE":"U","NORAD_CAT_ID":65543,"ELEMENT_SET_NO":999,"REV_AT_EPOCH":2914,"BSTAR":0.0001230669,"MEAN_MOTION_DOT":1.715e-5,"MEAN_MOTION_DDOT":0},{"OBJECT_NAME":"PEGASUS DEB","OBJECT_ID":"1994-029AFJ","EPOCH":"2026-03-03T19:03:50.475744","MEAN_MOTION":14.72508431,"ECCENTRICITY":0.0165055,"INCLINATION":81.9829,"RA_OF_ASC_NODE":93.0554,"ARG_OF_PERICENTER":318.1487,"MEAN_ANOMALY":40.7194,"EPHEMERIS_TYPE":0,"CLASSIFICATION_TYPE":"U","NORAD_CAT_ID":39323,"ELEMENT_SET_NO":999,"REV_AT_EPOCH":72598,"BSTAR":0.0010497,"MEAN_MOTION_DOT":8.298e-5,"MEAN_MOTION_DDOT":0}]
